$$SOE
2460154.500000000, A.D. 2023-Jul-29 00:00:00.0000, -4.222472165963292E+08, 2.294131683456968E+08, -6.349471426666839E+07,
2460161.500000000, A.D. 2023-Aug-05 00:00:00.0000, -4.268455518213972E+08, 2.206753401868972E+08, -6.222063533313113E+07,
2460168.500000000, A.D. 2023-Aug-12 00:00:00.0000, -4.312617754962973E+08, 2.118433178921261E+08, -6.091999988180951E+07,
2460175.500000000, A.D. 2023-Aug-19 00:00:00.0000, -4.354937809949526E+08, 2.029207584613402E+08, -5.959333121792172E+07,
2460182.500000000, A.D. 2023-Aug-26 00:00:00.0000, -4.395395328231565E+08, 1.939113651115009E+08, -5.824116477927174E+07,
2460189.500000000, A.D. 2023-Sep-02 00:00:00.0000, -4.433970678101090E+08, 1.848188860615616E+08, -5.686404798364620E+07,
2460196.500000000, A.D. 2023-Sep-09 00:00:00.0000, -4.470644962711595E+08, 1.756471131745161E+08, -5.546254008133020E+07,
2460203.500000000, A.D. 2023-Sep-16 00:00:00.0000, -4.505400029723691E+08, 1.663998803983309E+08, -5.403721203277868E+07,
2460210.500000000, A.D. 2023-Sep-23 00:00:00.0000, -4.538218474793535E+08, 1.570810622923296E+08, -5.258864642600011E+07,
2460217.500000000, A.D. 2023-Sep-30 00:00:00.0000, -4.569083642288584E+08, 1.476945738293032E+08, -5.111743730497852E+07,
2460224.500000000, A.D. 2023-Oct-07 00:00:00.0000, -4.597979646765750E+08, 1.382443709301114E+08, -4.962418973761074E+07,
2460231.500000000, A.D. 2023-Oct-14 00:00:00.0000, -4.624891404815388E+08, 1.287344484183619E+08, -4.810951948944907E+07,
2460238.500000000, A.D. 2023-Oct-21 00:00:00.0000, -4.649804644965140E+08, 1.191688369987940E+08, -4.657405296790231E+07,
2460245.500000000, A.D. 2023-Oct-28 00:00:00.0000, -4.672705909861743E+08, 1.095516015185559E+08, -4.501842712079640E+07,
2460252.500000000, A.D. 2023-Nov-04 00:00:00.0000, -4.693582563227330E+08, 9.988683974004897E+07, -4.344328923747119E+07,
2460259.500000000, A.D. 2023-Nov-11 00:00:00.0000, -4.712422799815443E+08, 9.017868102574545E+07, -4.184929671775125E+07,
2460266.500000000, A.D. 2023-Nov-18 00:00:00.0000, -4.729215656165148E+08, 8.043128487119119E+07, -4.023711683398944E+07,
2460273.500000000, A.D. 2023-Nov-25 00:00:00.0000, -4.743951021415522E+08, 7.064883930904570E+07, -3.860742649076693E+07,
2460280.500000000, A.D. 2023-Dec-02 00:00:00.0000, -4.756619647890149E+08, 6.083555917324060E+07, -3.696091198557067E+07,
2460287.500000000, A.D. 2023-Dec-09 00:00:00.0000, -4.767213160664924E+08, 5.099568416486577E+07, -3.529826878229362E+07,
2460294.500000000, A.D. 2023-Dec-16 00:00:00.0000, -4.775724063231960E+08, 4.113347673319498E+07, -3.362020132279901E+07,
2460301.500000000, A.D. 2023-Dec-23 00:00:00.0000, -4.782145735755305E+08, 3.125322046025700E+07, -3.192742285214814E+07,
2460308.500000000, A.D. 2023-Dec-30 00:00:00.0000, -4.786472439293711E+08, 2.135921999863302E+07, -3.022065504860983E+07,
2460315.500000000, A.D. 2024-Jan-06 00:00:00.0000, -4.788699343695908E+08, 1.145580020138711E+07, -2.850062748886773E+07,
2460322.500000000, A.D. 2024-Jan-13 00:00:00.0000, -4.788822547431507E+08, 1.547302637213828E+06, -2.676807738739096E+07,
2460329.500000000, A.D. 2024-Jan-20 00:00:00.0000, -4.786839077102330E+08, -8.361917424453159E+06, -2.502374947024145E+07,
2460336.500000000, A.D. 2024-Jan-27 00:00:00.0000, -4.782746886905905E+08, -1.826749290700411E+07, -2.326839574427745E+07,
2460343.500000000, A.D. 2024-Feb-03 00:00:00.0000, -4.776544862341244E+08, -2.816504664795953E+07, -2.150277520073295E+07,
2460350.500000000, A.D. 2024-Feb-10 00:00:00.0000, -4.768232825393527E+08, -3.805019323810092E+07, -1.972765350305242E+07,
2460357.500000000, A.D. 2024-Feb-17 00:00:00.0000, -4.757811539809096E+08, -4.791854096879651E+07, -1.794380267133895E+07,
2460364.500000000, A.D. 2024-Feb-24 00:00:00.0000, -4.745282716089948E+08, -5.776569387122440E+07, -1.615200076557485E+07,
2460371.500000000, A.D. 2024-Mar-02 00:00:00.0000, -4.730649015899378E+08, -6.758725387882751E+07, -1.435303157297280E+07,
2460378.500000000, A.D. 2024-Mar-09 00:00:00.0000, -4.713914054475598E+08, -7.737882317477807E+07, -1.254768431734145E+07,
2460385.500000000, A.D. 2024-Mar-16 00:00:00.0000, -4.695082397084318E+08, -8.713600652601777E+07, -1.073675341061344E+07,
2460392.500000000, A.D. 2024-Mar-23 00:00:00.0000, -4.674159550526357E+08, -9.685441249357384E+07, -8.921038146419108E+06,
2460399.500000000, A.D. 2024-Mar-30 00:00:00.0000, -4.651151972090857E+08, -1.065296535450906E+08, -7.101342132431597E+06,
2460406.500000000, A.D. 2024-Apr-06 00:00:00.0000, -4.626067093384885E+08, -1.161573484367595E+08, -5.278472760437995E+06,
2460413.500000000, A.D. 2024-Apr-13 00:00:00.0000, -4.598913323524029E+08, -1.257331260268750E+08, -3.453240971660919E+06,
2460420.500000000, A.D. 2024-Apr-20 00:00:00.0000, -4.569700041183112E+08, -1.352526278424400E+08, -1.626461011217356E+06,
2460427.500000000, A.D. 2024-Apr-27 00:00:00.0000, -4.538437590650089E+08, -1.447115099594483E+08, 2.010499214503169E+05,
2460434.500000000, A.D. 2024-May-04 00:00:00.0000, -4.505137280993185E+08, -1.541054449002120E+08, 2.028472060329601E+06,
2460441.500000000, A.D. 2024-May-11 00:00:00.0000, -4.469811385959513E+08, -1.634301236488999E+08, 3.854983468358390E+06,
2460448.500000000, A.D. 2024-May-18 00:00:00.0000, -4.432473143787243E+08, -1.726812577621510E+08, 5.679760434880413E+06,
2460455.500000000, A.D. 2024-May-25 00:00:00.0000, -4.393136756681679E+08, -1.818545815799268E+08, 7.501977872212425E+06,
2460462.500000000, A.D. 2024-Jun-01 00:00:00.0000, -4.351817389351268E+08, -1.909458545919534E+08, 9.320809701207124E+06,
2460469.500000000, A.D. 2024-Jun-08 00:00:00.0000, -4.308531164132679E+08, -1.999508639805990E+08, 1.113542920142116E+07,
2460476.500000000, A.D. 2024-Jun-15 00:00:00.0000, -4.263295148700398E+08, -2.088654267929157E+08, 1.294500933387132E+07,
2460483.500000000, A.D. 2024-Jun-22 00:00:00.0000, -4.216127346399271E+08, -2.176853905645179E+08, 1.474872322465032E+07,
2460490.500000000, A.D. 2024-Jun-29 00:00:00.0000, -4.167046710403032E+08, -2.264066342146215E+08, 1.654574485511824E+07,
2460497.500000000, A.D. 2024-Jul-06 00:00:00.0000, -4.116073155249925E+08, -2.350250716825277E+08, 1.833524951402208E+07,
2460504.500000000, A.D. 2024-Jul-13 00:00:00.0000, -4.063227546268687E+08, -2.435366554796701E+08, 2.011641406356511E+07,
2460511.500000000, A.D. 2024-Jul-20 00:00:00.0000, -4.008531686742760E+08, -2.519373790058333E+08, 2.188841729536709E+07,
2460518.500000000, A.D. 2024-Jul-27 00:00:00.0000, -3.952008309357625E+08, -2.602232785869448E+08, 2.365044035775442E+07,
2460525.500000000, A.D. 2024-Aug-03 00:00:00.0000, -3.893681069194755E+08, -2.683904356081919E+08, 2.540166719824900E+07,
2460532.500000000, A.D. 2024-Aug-10 00:00:00.0000, -3.833574536617781E+08, -2.764349787456970E+08, 2.714128500525972E+07,
2460539.500000000, A.D. 2024-Aug-17 00:00:00.0000, -3.771714189584846E+08, -2.843530862730572E+08, 2.886848464604907E+07,
2460546.500000000, A.D. 2024-Aug-24 00:00:00.0000, -3.708126405113724E+08, -2.921409884622052E+08, 3.058246109621511E+07,
2460553.500000000, A.D. 2024-Aug-31 00:00:00.0000, -3.642838448742837E+08, -2.997949701366354E+08, 3.228241384457716E+07,
2460560.500000000, A.D. 2024-Sep-07 00:00:00.0000, -3.575878458324768E+08, -3.073113732468640E+08, 3.396754724962409E+07,
2460567.500000000, A.D. 2024-Sep-14 00:00:00.0000, -3.507275421283060E+08, -3.146865984687038E+08, 3.563707092026894E+07,
2460574.500000000, A.D. 2024-Sep-21 00:00:00.0000, -3.437059165598859E+08, -3.219171054092200E+08, 3.729020033973773E+07,
2460581.500000000, A.D. 2024-Sep-28 00:00:00.0000, -3.365260369390227E+08, -3.289994146474544E+08, 3.892615751265265E+07,
2460588.500000000, A.D. 2024-Oct-05 00:00:00.0000, -3.291910552401116E+08, -3.359301116088474E+08, 4.054417129844497E+07,
2460595.500000000, A.D. 2024-Oct-12 00:00:00.0000, -3.217042053032225E+08, -3.427058492923505E+08, 4.214347770764983E+07,
2460602.500000000, A.D. 2024-Oct-19 00:00:00.0000, -3.140688008439809E+08, -3.493233501182810E+08, 4.372332029939321E+07,
2460609.500000000, A.D. 2024-Oct-26 00:00:00.0000, -3.062882338031754E+08, -3.557794076950948E+08, 4.528295061717221E+07,
2460616.500000000, A.D. 2024-Nov-02 00:00:00.0000, -2.983659727788348E+08, -3.620708886507052E+08, 4.682162862673163E+07,
2460623.500000000, A.D. 2024-Nov-09 00:00:00.0000, -2.903055614444436E+08, -3.681947345053790E+08, 4.833862314847423E+07,
2460630.500000000, A.D. 2024-Nov-16 00:00:00.0000, -2.821106169279909E+08, -3.741479635837394E+08, 4.983321228175424E+07,
2460637.500000000, A.D. 2024-Nov-23 00:00:00.0000, -2.737848281056250E+08, -3.799276730134189E+08, 5.130468381239934E+07,
2460644.500000000, A.D. 2024-Nov-30 00:00:00.0000, -2.653319536023405E+08, -3.855310408506209E+08, 5.275233558058234E+07,
2460651.500000000, A.D. 2024-Dec-07 00:00:00.0000, -2.567558190810643E+08, -3.909553279095820E+08, 5.417547580465238E+07,
2460658.500000000, A.D. 2024-Dec-14 00:00:00.0000, -2.480603145095421E+08, -3.961978780693454E+08, 5.557342352376348E+07,
2460665.500000000, A.D. 2024-Dec-21 00:00:00.0000, -2.392493937239431E+08, -4.012561182959144E+08, 5.694550927008259E+07,
2460672.500000000, A.D. 2024-Dec-28 00:00:00.0000, -2.303270743172285E+08, -4.061275613455456E+08, 5.829107554679886E+07,
2460679.500000000, A.D. 2025-Jan-04 00:00:00.0000, -2.212974352567134E+08, -4.108098087722382E+08, 5.960947706792116E+07,
2460686.500000000, A.D. 2025-Jan-11 00:00:00.0000, -2.121646140540652E+08, -4.153005525779124E+08, 6.090008106261809E+07,
2460693.500000000, A.D. 2025-Jan-18 00:00:00.0000, -2.029328044061812E+08, -4.195975764216353E+08, 6.216226765296885E+07,
2460700.500000000, A.D. 2025-Jan-25 00:00:00.0000, -1.936062540645775E+08, -4.236987568600129E+08, 6.339543024371055E+07,
2460707.500000000, A.D. 2025-Feb-01 00:00:00.0000, -1.841892627447714E+08, -4.276020646469077E+08, 6.459897590381269E+07,
2460714.500000000, A.D. 2025-Feb-08 00:00:00.0000, -1.746861800184372E+08, -4.313055660714484E+08, 6.577232573591778E+07,
$$EOE